NORAD_CAT_ID,OBJECT_NAME,OBJECT_TYPE,EPOCH,MEAN_MOTION,ECCENTRICITY,INCLINATION,RA_OF_ASC_NODE,ARG_OF_PERICENTER,MEAN_ANOMALY,BSTAR,MEAN_MOTION_DOT,MEAN_MOTION_DDOT,TLE_LINE0,TLE_LINE1,TLE_LINE2,SEMIMAJOR_AXIS,PERIOD,APOGEE,PERIGEE,DECAYED
53574.0,STARLINK-4559,PAYLOAD,2023-03-07 15:46:15,15.08845516,0.0002075,53.2157,303.0982,112.2618,247.8594,0.00037844,5.741e-05,0.0,0 STARLINK-4559,1 53574U 22101AZ  23066.65712502  .00005741  00000-0  37844-3 0  9991,2 53574  53.2157 303.0982 0002075 112.2618 247.8594 15.08845516 30688,6917.864,95.437,541.164,538.293,0.0
53574.0,STARLINK-4559,PAYLOAD,2023-03-08 01:18:34,15.08861042,0.0002008,53.2138,301.3135,94.2745,265.8476,0.001608,0.00025411,0.0,0 STARLINK-4559,1 53574U 22101AZ  23067.05456330  .00025411  00000-0  16080-2 0  9994,2 53574  53.2138 301.3135 0002008  94.2745 265.8476 15.08861042 30742,6917.816,95.436,541.07,538.292,0.0
53574.0,STARLINK-4559,PAYLOAD,2023-03-08 15:37:02,15.08857004,0.0003978,53.205,298.6319,105.7734,254.3697,0.0015769,0.00024912,0.0,0 STARLINK-4559,1 53574U 22101AZ  23067.65072800  .00024912  00000-0  15769-2 0  9994,2 53574  53.2050 298.6319 0003978 105.7734 254.3697 15.08857004 30831,6917.828,95.436,542.445,536.942,0.0
53574.0,STARLINK-4559,PAYLOAD,2023-03-08 21:58:35,15.08848464,0.0001742,53.2178,297.4465,81.9707,278.1483,0.0014618,0.00023059,0.0,0 STARLINK-4559,1 53574U 22101AZ  23067.91569043  .00023059  00000-0  14618-2 0  9996,2 53574  53.2178 297.4465 0001742  81.9707 278.1483 15.08848464 30874,6917.855,95.437,540.925,538.514,0.0
53574.0,STARLINK-4559,PAYLOAD,2023-03-09 18:38:36,15.08852224,0.0001129,53.2155,293.5834,68.6412,291.4701,0.00087355,0.00013647,0.0,0 STARLINK-4559,1 53574U 22101AZ  23068.77681060  .00013647  00000-0  87355-3 0  9996,2 53574  53.2155 293.5834 0001129  68.6412 291.4701 15.08852224 31006,6917.843,95.437,540.489,538.927,0.0
53574.0,STARLINK-4559,PAYLOAD,2023-03-09 21:49:22,15.08863427,0.0001243,53.2143,292.9866,86.6851,273.4283,0.0016342,0.00025833,0.0,0 STARLINK-4559,1 53574U 22101AZ  23068.90928890  .00025833  00000-0  16342-2 0  9993,2 53574  53.2143 292.9866 0001243  86.6851 273.4283 15.08863427 31029,6917.809,95.436,540.534,538.814,0.0
53574.0,STARLINK-4559,PAYLOAD,2023-03-10 07:21:41,15.08833773,0.0001362,53.2149,291.2025,86.6726,273.4422,-2.2582e-05,-6.47e-06,0.0,0 STARLINK-4559,1 53574U 22101AZ  23069.30673437 -.00000647  00000-0 -22582-4 0  9995,2 53574  53.2149 291.2025 0001362  86.6726 273.4422 15.08833773 31089,6917.899,95.438,540.707,538.822,0.0
53574.0,STARLINK-4559,PAYLOAD,2023-03-10 21:40:11,15.08805091,0.0001157,53.2148,288.5248,97.8354,262.2769,-0.00029586,-4.989e-05,0.0,0 STARLINK-4559,1 53574U 22101AZ  23069.90290918 -.00004989  00000-0 -29586-3 0  9993,2 53574  53.2148 288.5248 0001157  97.8354 262.2769 15.08805091 31179,6917.987,95.44,540.653,539.052,0.0
53574.0,STARLINK-4559,PAYLOAD,2023-03-11 00:50:57,15.08801938,0.0001134,53.2146,287.929,93.7498,266.3624,-0.00012824,-2.326e-05,0.0,0 STARLINK-4559,1 53574U 22101AZ  23070.03539344 -.00002326  00000-0 -12824-3 0  9998,2 53574  53.2146 287.9290 0001134  93.7498 266.3624 15.08801938 31199,6917.997,95.44,540.646,539.077,0.0
53574.0,STARLINK-4559,PAYLOAD,2023-03-12 00:41:44,15.08868059,0.0001169,53.214,283.4694,111.001,249.1107,0.0012979,0.00020444,0.0,0 STARLINK-4559,1 53574U 22101AZ  23071.02898269  .00020444  00000-0  12979-2 0  9991,2 53574  53.2140 283.4694 0001169 111.0010 249.1107 15.08868059 31343,6917.795,95.436,540.468,538.851,0.0
53574.0,STARLINK-4559,PAYLOAD,2023-03-13 00:32:30,15.08871094,0.0003018,53.2144,279.008,64.7213,295.4092,0.00052206,8.037e-05,0.0,0 STARLINK-4559,1 53574U 22101AZ  23072.02257794  .00008037  00000-0  52206-3 0  9996,2 53574  53.2144 279.0080 0003018  64.7213 295.4092 15.08871094 31497,6917.785,95.436,541.738,537.563,0.0
53574.0,STARLINK-4559,PAYLOAD,2023-03-13 13:15:35,15.08831928,0.0001328,53.2143,276.6248,108.1016,252.012,8.1523e-05,1.01e-05,0.0,0 STARLINK-4559,1 53574U 22101AZ  23072.55249706  .00001010  00000-0  81523-4 0  9997,2 53574  53.2143 276.6248 0001328 108.1016 252.0120 15.08831928 31573,6917.905,95.438,540.689,538.851,0.0
53574.0,STARLINK-4559,PAYLOAD,2023-03-13 21:12:31,15.08834075,0.0001735,53.2134,275.1402,91.1104,269.0087,0.00059252,9.153e-05,0.0,0 STARLINK-4559,1 53574U 22101AZ  23072.88370026  .00009153  00000-0  59252-3 0  9992,2 53574  53.2134 275.1402 0001735  91.1104 269.0087 15.08834075 31622,6917.898,95.438,540.964,538.563,0.0
53574.0,STARLINK-4559,PAYLOAD,2023-03-14 13:06:23,15.08849086,0.0001624,53.2145,272.1679,93.0808,267.037,0.00086754,0.00013549,0.0,0 STARLINK-4559,1 53574U 22101AZ  23073.54609980  .00013549  00000-0  86754-3 0  9991,2 53574  53.2145 272.1679 0001624  93.0808 267.0370 15.08849086 31728,6917.853,95.437,540.841,538.594,0.0
53574.0,STARLINK-4559,PAYLOAD,2023-03-14 19:27:55,15.08865532,8.34e-05,53.214,270.9789,56.0936,304.0135,0.001219,0.00019179,0.0,0 STARLINK-4559,1 53574U 22101AZ  23073.81105526  .00019179  00000-0  12190-2 0  9995,2 53574  53.2140 270.9789 0000834  56.0936 304.0135 15.08865532 31763,6917.802,95.436,540.244,539.09,0.0
53574.0,STARLINK-4559,PAYLOAD,2023-03-15 12:57:09,15.0886444,8.77e-05,53.2144,267.7078,20.0161,340.0866,0.00092575,0.00014486,0.0,0 STARLINK-4559,1 53574U 22101AZ  23074.53969186  .00014486  00000-0  92575-3 0  9997,2 53574  53.2144 267.7078 0000877  20.0161 340.0866 15.08864440 31870,6917.806,95.436,540.277,539.064,0.0
53574.0,STARLINK-4559,PAYLOAD,2023-03-15 22:29:27,15.08861057,0.0001175,53.216,265.9222,81.0128,279.0997,0.00062387,9.661e-05,0.0,0 STARLINK-4559,1 53574U 22101AZ  23074.93712764  .00009661  00000-0  62387-3 0  9996,2 53574  53.2160 265.9222 0001175  81.0128 279.0997 15.08861057 31935,6917.816,95.436,540.494,538.868,0.0
53574.0,STARLINK-4559,PAYLOAD,2023-03-16 12:47:56,15.08837334,0.0003171,53.2048,263.2418,107.3036,252.8304,0.00054116,8.334e-05,0.0,0 STARLINK-4559,1 53574U 22101AZ  23075.53329554  .00008334  00000-0  54116-3 0  9991,2 53574  53.2048 263.2418 0003171 107.3036 252.8304 15.08837334 32029,6917.889,95.438,541.947,537.56,0.0
53574.0,STARLINK-4559,PAYLOAD,2023-03-16 19:09:29,15.08821319,5.94e-05,53.2162,262.0582,75.4954,284.6104,6.4726e-05,7.42e-06,0.0,0 STARLINK-4559,1 53574U 22101AZ  23075.79826107  .00000742  00000-0  64726-4 0  9999,2 53574  53.2162 262.0582 0000594  75.4954 284.6104 15.08821319 32066,6917.937,95.439,540.213,539.392,0.0
53574.0,STARLINK-4559,PAYLOAD,2023-03-17 12:38:44,15.08839581,0.000107,53.2141,258.786,93.0992,267.0122,0.00053118,8.176e-05,0.0,0 STARLINK-4559,1 53574U 22101AZ  23076.52690374  .00008176  00000-0  53118-3 0  9997,2 53574  53.2141 258.7860 0001070  93.0992 267.0122 15.08839581 32179,6917.882,95.438,540.487,539.006,0.0
53574.0,STARLINK-4559,PAYLOAD,2023-03-17 19:00:16,15.08852333,6.97e-05,53.2151,257.5976,87.5682,272.539,0.00091904,0.00014374,0.0,0 STARLINK-4559,1 53574U 22101AZ  23076.79186172  .00014374  00000-0  91904-3 0  9994,2 53574  53.2151 257.5976 0000697  87.5682 272.5390 15.08852333 32216,6917.843,95.437,540.19,539.226,0.0
53574.0,STARLINK-4559,PAYLOAD,2023-03-18 12:29:31,15.08855945,0.0001704,53.2188,254.3293,99.5942,260.5243,0.00044066,6.735e-05,0.0,0 STARLINK-4559,1 53574U 22101AZ  23077.52049818  .00006735  00000-0  44066-3 0  9990,2 53574  53.2188 254.3293 0001704  99.5942 260.5243 15.08855945 32323,6917.832,95.437,540.875,538.518,0.0
53574.0,STARLINK-4559,PAYLOAD,2023-03-18 22:01:49,15.08856267,0.0001222,53.2136,252.5421,90.9191,269.1941,0.00038575,5.859e-05,0.0,0 STARLINK-4559,1 53574U 22101AZ  23077.91793435  .00005859  00000-0  38575-3 0  9998,2 53574  53.2136 252.5421 0001222  90.9191 269.1941 15.08856267 32389,6917.831,95.437,540.541,538.85,0.0
53574.0,STARLINK-4559,PAYLOAD,2023-03-19 04:23:22,15.08846288,0.0001095,53.2138,251.3521,87.2794,272.8324,0.00020826,3.029e-05,0.0,0 STARLINK-4559,1 53574U 22101AZ  23078.18289563  .00003029  00000-0  20826-3 0  9997,2 53574  53.2138 251.3521 0001095  87.2794 272.8324 15.08846288 32428,6917.861,95.437,540.484,538.969,0.0
53574.0,STARLINK-4559,PAYLOAD,2023-03-19 12:20:17,15.08844255,0.0001349,53.214,249.8647,86.1669,273.9477,9.3452e-05,1.2e-05,0.0,0 STARLINK-4559,1 53574U 22101AZ  23078.51409653  .00001200  00000-0  93452-4 0  9993,2 53574  53.2140 249.8647 0001349  86.1669 273.9477 15.08844255 32471,6917.867,95.437,540.666,538.799,0.0
53574.0,STARLINK-4559,PAYLOAD,2023-03-19 20:17:13,15.08846964,0.000116,53.214,248.3785,89.7031,270.4094,7.619e-05,9.25e-06,0.0,0 STARLINK-4559,1 53574U 22101AZ  23078.84529484  .00000925  00000-0  76190-4 0  9997,2 53574  53.2140 248.3785 0001160  89.7031 270.4094 15.08846964 32523,6917.859,95.437,540.527,538.922,0.0
53574.0,STARLINK-4559,PAYLOAD,2023-03-19 21:52:36,15.08849144,0.0001293,53.2143,248.0803,85.0863,275.0277,0.00011492,1.542e-05,0.0,0 STARLINK-4559,1 53574U 22101AZ  23078.91153383  .00001542  00000-0  11492-3 0  9995,2 53574  53.2143 248.0803 0001293  85.0863 275.0277 15.08849144 32531,6917.852,95.437,540.612,538.823,0.0
53574.0,STARLINK-4559,PAYLOAD,2023-03-20 15:21:51,15.08840256,0.0001424,53.2143,244.8081,87.3476,272.7679,7.6845e-05,9.35e-06,0.0,0 STARLINK-4559,1 53574U 22101AZ  23079.64017778  .00000935  00000-0  76845-4 0  9992,2 53574  53.2143 244.8081 0001424  87.3476 272.7679 15.08840256 32641,6917.88,95.438,540.73,538.76,0.0
53574.0,STARLINK-4559,PAYLOAD,2023-03-20 18:32:37,15.0884353,0.0001238,53.2143,244.2143,89.4448,270.6686,9.0688e-05,1.156e-05,0.0,0 STARLINK-4559,1 53574U 22101AZ  23079.77265604  .00001156  00000-0  90688-4 0  9996,2 53574  53.2143 244.2143 0001238  89.4448 270.6686 15.08843530 32664,6917.87,95.437,540.591,538.878,0.0
53574.0,STARLINK-4559,PAYLOAD,2023-03-21 04:04:56,15.08841568,0.0001254,53.2144,242.43,86.8603,273.2533,8.2999e-05,1.033e-05,0.0,0 STARLINK-4559,1 53574U 22101AZ  23080.17009703  .00001033  00000-0  82999-4 0  9998,2 53574  53.2144 242.4300 0001254  86.8603 273.2533 15.08841568 32728,6917.876,95.437,540.608,538.873,0.0
